STARLINK-2169
1 47752U 21017AG  26090.31006186  .00089062  00000+0  18535-2 0  9996
2 47752  53.1583 102.6005 0001293  73.8331 286.2818 15.44894263281211
